STARLINK-2022           
1 47643U 21012Z   24139.20259641 -.00002096  00000+0 -12184-3 0  9995
2 47643  53.0529 136.6513 0001724 117.6597 242.4567 15.06393094180194
